{"type":"FeatureCollection","features":[{"type":"Feature","properties":{"code":"AB","name":"Alberta"},"geometry":{"type":"Polygon","coordinates":[[[-109.999,48.993],[-111.174,48.993],[-112.453,48.993],[-114.063,48.993],[-114.19,49.168],[-114.355,49.211],[-114.717,49.569],[-114.643,49.73],[-114.651,49.985],[-114.789,50.359],[-114.993,50.545],[-115.206,50.554],[-115.347,50.729],[-115.634,50.855],[-115.619,50.962],[-115.998,51.13],[-116.035,51.218],[-116.279,51.348],[-116.31,51.448],[-116.567,51.651],[-116.674,51.791],[-116.939,51.736],[-117.037,51.886],[-117.32,52.156],[-117.587,52.142],[-117.822,52.272],[-117.732,52.383],[-118.002,52.486],[-118.191,52.384],[-118.35,52.623],[-118.319,52.674],[-118.502,52.888],[-118.605,52.895],[-118.804,53.153],[-119.022,53.139],[-119.261,53.209],[-119.4,53.353],[-119.723,53.4],[-119.894,53.516],[-119.885,53.708],[-120.001,53.844],[-120.001,54.998],[-120.001,55.768],[-120.001,56.538],[-120,57.307],[-120,58.077],[-120,58.847],[-120,60.001],[-117.5,60.001],[-116.25,60.001],[-115,60.001],[-113.75,60.001],[-112.5,60.001],[-111.25,60.001],[-110,60.001],[-110,59.313],[-110,58.281],[-110,57.249],[-110,56.561],[-110,55.529],[-110,54.498],[-110,53.81],[-110,52.778],[-110,51.402],[-109.999,50.026],[-109.999,48.993]]]}},{"type":"Feature","properties":{"code":"BC","name":"British Columbia"},"geometry":{"type":"MultiPolygon","coordinates":[[[[-120,60.001],[-120,58.847],[-120,58.077],[-120,57.307],[-120.001,56.538],[-120.001,55.768],[-120.001,54.998],[-120.001,53.844],[-119.885,53.708],[-119.894,53.516],[-119.723,53.4],[-119.4,53.353],[-119.261,53.209],[-119.022,53.139],[-118.804,53.153],[-118.605,52.895],[-118.502,52.888],[-118.319,52.674],[-118.35,52.623],[-118.191,52.384],[-118.002,52.486],[-117.732,52.383],[-117.822,52.272],[-117.587,52.142],[-117.32,52.156],[-117.037,51.886],[-116.939,51.736],[-116.674,51.791],[-116.567,51.651],[-116.31,51.448],[-116.279,51.348],[-116.035,51.218],[-115.998,51.13],[-115.619,50.962],[-115.634,50.855],[-115.347,50.729],[-115.206,50.554],[-114.993,50.545],[-114.789,50.359],[-114.651,49.985],[-114.643,49.73],[-114.717,49.569],[-114.355,49.211],[-114.19,49.168],[-114.063,48.993],[-116.048,48.993],[-117.039,48.993],[-118.423,48.993],[-119.702,48.993],[-121.407,48.993],[-122.789,48.993],[-122.924,49.075],[-123.049,48.993],[-123.086,48.993],[-123.336,49.459],[-123.531,49.397],[-123.859,49.483],[-124.054,49.662],[-123.874,49.737],[-123.972,49.892],[-124.142,49.793],[-124.483,49.808],[-124.782,50.02],[-124.784,50.073],[-125.057,50.419],[-125.476,50.497],[-125.698,50.465],[-126.404,50.53],[-126.397,50.807],[-126.632,50.915],[-127.058,50.868],[-127.441,50.989],[-127.708,51.151],[-127.645,51.478],[-127.819,51.604],[-127.859,51.99],[-128.102,51.788],[-128.194,51.998],[-128.358,52.159],[-128.037,52.318],[-128.06,52.428],[-128.275,52.436],[-128.109,52.858],[-128.365,52.826],[-128.452,52.877],[-128.525,53.141],[-128.652,53.244],[-129.081,53.367],[-129.172,53.534],[-129.114,53.641],[-128.936,53.715],[-128.751,53.661],[-128.705,53.919],[-128.959,53.841],[-129.208,53.642],[-129.284,53.393],[-129.564,53.251],[-129.822,53.413],[-129.912,53.551],[-130.074,53.576],[-130.335,53.724],[-130.086,53.976],[-130.043,54.134],[-130.29,54.27],[-130.43,54.421],[-130.37,54.62],[-130.219,54.73],[-129.89,55.165],[-129.838,55.319],[-129.985,55.359],[-130.093,55.632],[-130.025,55.888],[-130.023,56.015],[-130.413,56.123],[-130.477,56.231],[-130.742,56.341],[-131.083,56.405],[-131.575,56.599],[-131.824,56.59],[-131.866,56.793],[-132.104,56.857],[-132.032,57.027],[-132.338,57.079],[-132.232,57.199],[-132.55,57.5],[-133.275,58.223],[-133.401,58.411],[-133.821,58.705],[-134.219,58.85],[-134.441,59.085],[-134.944,59.288],[-135.071,59.441],[-135.051,59.579],[-135.476,59.793],[-135.935,59.663],[-136.322,59.605],[-136.466,59.459],[-136.467,59.28],[-136.579,59.152],[-136.813,59.15],[-137.439,58.903],[-137.593,59.226],[-138.632,59.778],[-138.705,59.901],[-139.057,60.002],[-138.095,60.001],[-136.192,60.001],[-134.288,60.001],[-133.337,60.001],[-131.433,60.001],[-130.481,60.001],[-128.578,60.001],[-126.674,60.001],[-124.771,60.001],[-123.819,60.001],[-121.432,60.001],[-120,60.001]]],[[[-130.214,55.026],[-130.037,55.298],[-130.147,55.654],[-130.025,55.888],[-130.123,55.691],[-130.018,55.285],[-130.214,55.026]]],[[[-130.214,55.026],[-130.349,54.815],[-130.575,54.77],[-130.214,55.026]]],[[[-132.656,54.127],[-132.344,54.106],[-132.134,54.034],[-131.703,53.986],[-131.821,53.842],[-131.922,53.588],[-131.928,53.379],[-132.011,53.265],[-132.347,53.189],[-132.52,53.194],[-132.748,53.31],[-132.67,53.459],[-132.845,53.508],[-133.052,53.778],[-133.098,53.92],[-133.064,54.144],[-132.656,54.127]]],[[[-130.236,53.959],[-130.384,53.844],[-130.696,53.951],[-130.397,54.086],[-130.236,53.959]]],[[[-129.849,53.168],[-130.518,53.544],[-130.452,53.631],[-129.945,53.436],[-129.755,53.245],[-129.849,53.168]]],[[[-128.552,52.94],[-128.51,52.519],[-128.624,52.34],[-128.731,52.357],[-128.766,52.598],[-129.085,52.822],[-129.178,53.018],[-129.033,53.28],[-128.633,53.113],[-128.552,52.94]]],[[[-131.754,53.196],[-131.652,53.103],[-131.635,52.922],[-131.904,52.867],[-131.727,52.756],[-131.455,52.702],[-131.591,52.578],[-131.327,52.318],[-131.143,52.291],[-131.222,52.154],[-131.422,52.238],[-131.562,52.4],[-132.165,52.783],[-132.258,52.934],[-132.144,52.999],[-132.345,53.136],[-131.893,53.231],[-131.754,53.196]]],[[[-128.369,52.401],[-128.44,52.696],[-128.248,52.741],[-128.369,52.401]]],[[[-127.197,50.64],[-126.701,50.516],[-126.204,50.454],[-125.482,50.317],[-125.233,50.012],[-124.935,49.732],[-124.831,49.53],[-124.643,49.429],[-123.996,49.224],[-123.82,49.084],[-123.627,48.824],[-123.497,48.582],[-123.39,48.67],[-123.284,48.455],[-123.595,48.334],[-123.917,48.387],[-124.689,48.597],[-125.121,48.761],[-125.136,48.822],[-124.927,49.014],[-125.363,48.998],[-125.46,48.941],[-125.829,49.092],[-125.702,49.139],[-125.835,49.277],[-126.244,49.443],[-126.549,49.419],[-126.542,49.59],[-126.348,49.661],[-126.593,49.764],[-126.683,49.876],[-126.903,49.944],[-127.114,49.88],[-127.207,49.992],[-127.467,50.163],[-127.864,50.128],[-127.906,50.445],[-128.267,50.609],[-128.346,50.744],[-128.242,50.828],[-127.918,50.861],[-127.713,50.821],[-127.197,50.64]]],[[[-125.184,50.097],[-125.358,50.312],[-125.196,50.39],[-125.074,50.221],[-125.184,50.097]]],[[[-126.641,49.606],[-126.939,49.718],[-126.926,49.838],[-126.738,49.844],[-126.641,49.606]]]]}},{"type":"Feature","properties":{"code":"MB","name":"Manitoba"},"geometry":{"type":"Polygon","coordinates":[[[-88.948,56.851],[-90.68,55.767],[-91.378,55.317],[-92.295,54.69],[-93.62,53.748],[-94.387,53.285],[-95.154,52.822],[-95.157,51.528],[-95.159,50.665],[-95.155,49.37],[-95.162,48.992],[-97.226,48.993],[-99.235,48.993],[-100.088,48.993],[-101.367,48.993],[-101.484,50.273],[-101.603,51.553],[-101.723,52.832],[-101.802,53.685],[-101.882,54.538],[-102.001,55.818],[-102.001,56.602],[-102.001,57.386],[-102.001,58.171],[-102.002,59.217],[-102.002,60.001],[-100.202,60.001],[-98.852,60.001],[-97.052,60.001],[-94.772,60.002],[-94.788,59.268],[-94.87,59.088],[-94.713,58.903],[-94.287,58.716],[-93.78,58.773],[-93.278,58.756],[-93.155,58.695],[-93.1,58.49],[-92.842,58.076],[-92.702,57.778],[-92.49,57.469],[-92.44,57.275],[-92.614,57.039],[-92.249,57.009],[-91.111,57.241],[-90.592,57.224],[-89.791,56.981],[-88.948,56.851]]]}},{"type":"Feature","properties":{"code":"NB","name":"New Brunswick"},"geometry":{"type":"Polygon","coordinates":[[[-64.031,46.013],[-64.315,45.836],[-64.536,45.867],[-64.779,45.638],[-64.898,45.626],[-65.282,45.473],[-65.545,45.337],[-65.884,45.223],[-66.107,45.257],[-66.44,45.096],[-66.511,45.143],[-66.872,45.067],[-66.919,45.146],[-67.125,45.169],[-67.367,45.174],[-67.473,45.276],[-67.494,45.474],[-67.433,45.603],[-67.785,45.702],[-67.807,47.083],[-68.097,47.275],[-68.311,47.354],[-68.829,47.203],[-69.054,47.295],[-68.628,47.421],[-68.379,47.589],[-68.378,47.929],[-68.114,47.999],[-67.613,47.999],[-67.365,47.855],[-66.704,48.022],[-66.429,48.067],[-65.849,47.911],[-65.666,47.696],[-65.484,47.687],[-65.228,47.811],[-64.874,47.797],[-64.703,47.725],[-64.852,47.57],[-64.912,47.369],[-65.319,47.101],[-64.831,47.061],[-64.906,46.888],[-64.817,46.699],[-64.726,46.671],[-64.648,46.356],[-64.542,46.24],[-64.212,46.22],[-63.916,46.166],[-64.031,46.013]]]}},{"type":"Feature","properties":{"code":"NL","name":"Newfoundland and Labrador"},"geometry":{"type":"MultiPolygon","coordinates":[[[[-57.1,51.443],[-57.101,52.001],[-59.134,52.001],[-60.354,52.001],[-62.387,52.001],[-63.607,52.001],[-63.766,52.298],[-63.884,52.345],[-64.018,52.525],[-63.811,52.611],[-63.41,52.689],[-63.55,52.774],[-63.549,52.94],[-63.672,53.101],[-63.917,53.066],[-63.973,52.895],[-64.178,52.815],[-64.183,52.554],[-64.103,52.378],[-64.131,52.187],[-64.26,52.1],[-64.335,51.842],[-64.291,51.729],[-64.506,51.609],[-64.697,51.72],[-64.627,51.825],[-64.932,52.055],[-65.137,52.155],[-65.474,52.196],[-65.552,52.094],[-66.036,52.109],[-66.097,52.21],[-66.394,52.418],[-66.426,52.661],[-66.3,52.897],[-66.39,52.992],[-66.631,52.91],[-66.688,52.727],[-66.815,52.686],[-67.068,52.755],[-66.97,53.073],[-66.938,53.329],[-67.165,53.543],[-67.457,53.601],[-67.471,53.796],[-67.757,54.034],[-67.511,54.236],[-67.62,54.507],[-67.315,54.517],[-67.15,54.617],[-67.437,55.036],[-67.302,55.064],[-67.167,54.937],[-66.867,54.781],[-66.651,54.799],[-66.747,55.129],[-66.733,55.319],[-66.24,55.008],[-65.884,54.907],[-65.676,54.745],[-65.122,54.719],[-64.341,54.726],[-63.751,54.612],[-63.658,54.644],[-63.491,54.918],[-63.511,55.168],[-63.161,55.307],[-63.154,55.514],[-63.415,55.596],[-63.701,55.861],[-63.578,56.026],[-64.004,56.097],[-63.913,56.229],[-64.121,56.299],[-64.136,56.395],[-63.955,56.527],[-64.112,56.691],[-63.903,56.889],[-63.758,57.228],[-63.744,57.581],[-63.615,57.669],[-64.045,57.785],[-64.371,58.169],[-64.098,58.359],[-63.848,58.46],[-63.961,58.684],[-63.553,58.732],[-63.727,58.862],[-64.155,58.771],[-64.294,58.866],[-64.809,58.929],[-64.77,59.049],[-64.394,58.998],[-64.519,59.226],[-64.445,59.528],[-64.715,59.466],[-64.818,59.54],[-64.791,59.816],[-64.666,59.906],[-64.88,60.05],[-64.65,60.11],[-64.816,60.267],[-64.614,60.306],[-64.436,60.228],[-64.528,60.095],[-64.284,60.064],[-63.929,59.645],[-63.75,59.513],[-63.945,59.38],[-63.54,59.333],[-63.185,58.858],[-63.05,58.878],[-62.874,58.672],[-63.102,58.546],[-62.594,58.474],[-62.674,58.319],[-62.981,58.093],[-62.486,58.154],[-62.306,57.972],[-62.117,57.964],[-61.899,57.861],[-61.995,57.769],[-61.968,57.612],[-62.339,57.485],[-61.851,57.381],[-61.977,57.248],[-61.629,57.183],[-61.334,57.011],[-61.372,56.681],[-61.855,56.584],[-61.94,56.424],[-61.515,56.39],[-61.301,56.047],[-61.089,55.866],[-60.832,55.958],[-60.593,55.815],[-60.341,55.785],[-60.408,55.65],[-60.192,55.481],[-60.361,55.366],[-60.45,55.2],[-59.93,55.259],[-58.997,55.149],[-58.78,54.838],[-58.398,54.774],[-58.195,54.866],[-57.962,54.876],[-57.929,54.773],[-57.404,54.57],[-57.699,54.387],[-58.151,54.35],[-58.435,54.228],[-58.633,54.05],[-58.841,54.045],[-59.497,53.834],[-59.823,53.834],[-60.014,53.762],[-60.145,53.596],[-60.1,53.487],[-60.29,53.391],[-60.148,53.307],[-59.829,53.505],[-59.322,53.644],[-58.92,53.875],[-58.327,54.052],[-58.192,54.228],[-57.416,54.163],[-57.149,53.848],[-57.157,53.757],[-57.489,53.633],[-57.332,53.469],[-56.841,53.739],[-56.465,53.765],[-56.354,53.624],[-56.11,53.588],[-55.859,53.344],[-55.798,53.212],[-55.892,53],[-55.83,52.878],[-55.84,52.508],[-55.706,52.428],[-55.834,52.31],[-55.695,52.138],[-56.018,51.929],[-56.976,51.458],[-57.1,51.443]]],[[[-55.459,51.537],[-55.583,51.389],[-56.031,51.328],[-56,51.199],[-55.815,51.191],[-55.8,51.033],[-55.871,50.907],[-56.078,50.781],[-56.136,50.651],[-56.382,50.417],[-56.694,50.06],[-56.849,49.765],[-56.757,49.652],[-56.376,49.934],[-56.247,50.09],[-55.765,49.96],[-55.718,49.829],[-55.892,49.58],[-55.678,49.435],[-55.376,49.49],[-55.2,49.409],[-55.245,49.2],[-55.026,49.305],[-54.718,49.389],[-54.579,49.491],[-54.356,49.415],[-53.958,49.442],[-53.619,49.322],[-53.573,49.141],[-53.758,49.035],[-53.853,48.811],[-53.966,48.707],[-53.698,48.68],[-53.795,48.526],[-53.552,48.482],[-53.411,48.562],[-53.021,48.572],[-53.136,48.402],[-53.334,48.356],[-53.531,48.232],[-53.695,47.921],[-53.862,47.799],[-53.765,47.65],[-53.604,47.662],[-53.283,47.998],[-52.921,48.147],[-52.955,48.029],[-53.176,47.653],[-53.122,47.455],[-52.945,47.553],[-52.782,47.769],[-52.654,47.549],[-52.684,47.426],[-52.912,47.103],[-52.889,46.974],[-53.07,46.681],[-53.291,46.717],[-53.536,46.633],[-53.616,46.68],[-53.581,46.957],[-53.636,47.138],[-53.86,46.939],[-54.076,46.82],[-54.174,46.88],[-54.093,47.086],[-53.869,47.387],[-53.989,47.756],[-54.192,47.86],[-54.435,47.462],[-54.857,47.385],[-55.09,47.174],[-55.14,47.046],[-55.316,46.906],[-55.531,46.914],[-55.789,46.867],[-55.95,46.928],[-55.838,47.072],[-55.492,47.161],[-55.191,47.449],[-54.87,47.571],[-55.075,47.658],[-55.366,47.661],[-55.435,47.501],[-55.576,47.465],[-55.862,47.53],[-55.844,47.788],[-56.151,47.775],[-56.221,47.671],[-56.46,47.617],[-56.952,47.574],[-57.926,47.675],[-58.333,47.677],[-59.117,47.571],[-59.26,47.634],[-59.362,47.866],[-59.272,47.996],[-58.711,48.325],[-58.492,48.513],[-58.723,48.541],[-59.167,48.522],[-58.906,48.65],[-58.716,48.598],[-58.494,49.003],[-58.404,49.084],[-58.099,49.077],[-58.049,49.18],[-58.191,49.259],[-58.213,49.387],[-58.016,49.543],[-57.713,50.025],[-57.466,50.464],[-57.132,50.787],[-56.976,51.028],[-56.805,51.144],[-56.75,51.275],[-56.518,51.399],[-56.026,51.568],[-55.69,51.471],[-55.459,51.537]]]]}},{"type":"Feature","properties":{"code":"NS","name":"Nova Scotia"},"geometry":{"type":"MultiPolygon","coordinates":[[[[-64.315,45.836],[-64.031,46.013],[-63.703,45.858],[-63.509,45.875],[-63.293,45.752],[-63.108,45.782],[-62.701,45.741],[-62.483,45.622],[-61.956,45.868],[-61.877,45.714],[-61.657,45.642],[-61.492,45.687],[-61.282,45.441],[-61.107,45.349],[-61.101,45.233],[-61.284,45.235],[-62.514,44.844],[-63.306,44.643],[-63.544,44.655],[-63.61,44.48],[-63.761,44.486],[-64,44.645],[-64.286,44.55],[-64.378,44.304],[-64.862,43.868],[-65.087,43.727],[-65.33,43.668],[-65.344,43.55],[-65.482,43.518],[-65.738,43.561],[-65.887,43.795],[-66.126,43.814],[-66.193,44.144],[-66.1,44.367],[-65.868,44.569],[-65.682,44.651],[-65.657,44.76],[-64.903,45.121],[-64.449,45.256],[-64.235,45.114],[-64.093,45.217],[-63.748,45.311],[-64.087,45.411],[-64.6,45.41],[-64.747,45.324],[-64.913,45.375],[-64.827,45.476],[-64.56,45.625],[-64.315,45.836]]],[[[-61.105,45.945],[-60.806,45.738],[-60.472,45.947],[-60.573,46.061],[-60.505,46.204],[-60.298,46.311],[-60.226,46.196],[-59.865,46.16],[-60.016,45.88],[-60.386,45.655],[-60.673,45.591],[-60.872,45.611],[-61.284,45.574],[-61.45,45.716],[-61.495,45.941],[-61.409,46.17],[-61.241,46.303],[-60.87,46.797],[-60.617,46.976],[-60.425,46.923],[-60.332,46.768],[-60.577,46.172],[-61.105,45.945]]]]}},{"type":"Feature","properties":{"code":"NT","name":"Northwest Territories"},"geometry":{"type":"MultiPolygon","coordinates":[[[[-110,60.001],[-111.25,60.001],[-112.5,60.001],[-113.75,60.001],[-115,60.001],[-116.25,60.001],[-117.5,60.001],[-120,60.001],[-121.432,60.001],[-123.819,60.001],[-124.205,60.353],[-124.599,60.662],[-124.505,60.788],[-124.583,60.953],[-124.807,60.961],[-124.88,60.86],[-125.379,60.792],[-125.864,60.89],[-126.003,60.809],[-126.89,60.796],[-126.944,61.052],[-127.027,61.126],[-127.073,61.37],[-127.299,61.512],[-127.609,61.533],[-127.994,61.711],[-128.561,62.117],[-128.776,62.069],[-129.269,62.166],[-129.287,62.441],[-129.211,62.513],[-129.49,62.599],[-129.719,62.832],[-129.63,63.068],[-129.827,63.092],[-130.102,63.319],[-129.845,63.486],[-130.145,63.762],[-130.661,63.951],[-130.941,64.141],[-131.107,64.401],[-131.359,64.458],[-131.586,64.38],[-131.716,64.515],[-132.052,64.684],[-132.554,64.78],[-132.497,64.957],[-132.597,65.28],[-132.195,65.598],[-132.555,65.857],[-132.341,65.955],[-132.614,66.029],[-132.938,66.029],[-133.589,65.963],[-133.677,66.096],[-133.583,66.285],[-133.79,66.304],[-133.635,66.566],[-133.794,66.819],[-134.056,67.004],[-136.126,67.005],[-136.218,67.181],[-136.105,67.304],[-136.169,67.514],[-136.445,67.747],[-136.444,68.895],[-136.122,68.882],[-135.362,68.696],[-135.407,68.829],[-135.876,68.917],[-135.91,69.111],[-135.691,69.311],[-135.255,69.324],[-135.141,69.468],[-134.494,69.468],[-134.451,69.665],[-134.242,69.669],[-133.88,69.508],[-134.165,69.281],[-133.163,69.434],[-132.84,69.651],[-132.334,69.752],[-131.934,69.753],[-131.441,69.918],[-131.136,69.907],[-130.926,70.052],[-130.498,70.143],[-129.945,70.091],[-129.648,69.998],[-130.96,69.632],[-131.863,69.549],[-132.331,69.308],[-132.687,69.26],[-133.379,68.887],[-132.706,68.815],[-132.719,69.079],[-131.92,69.291],[-131.788,69.432],[-131.013,69.429],[-130.661,69.481],[-130.354,69.656],[-129.572,69.827],[-129.265,69.855],[-128.971,69.712],[-128.387,69.96],[-128.279,70.108],[-127.765,70.222],[-128.17,70.418],[-127.753,70.517],[-127.138,70.239],[-126.612,69.73],[-126.064,69.467],[-125.387,69.349],[-125.167,69.48],[-125.357,69.626],[-124.768,69.99],[-124.444,70.111],[-124.407,69.767],[-124.138,69.653],[-124.481,69.425],[-124.426,69.379],[-123.609,69.377],[-123.214,69.541],[-123.026,69.81],[-122.07,69.816],[-121.531,69.776],[-120.682,69.567],[-120.679,68.62],[-120.678,68.003],[-119.145,67.534],[-117.357,66.987],[-115.569,66.44],[-114.292,66.049],[-112.504,65.502],[-110.669,65.497],[-109.516,64.903],[-108.973,64.779],[-106.794,64.607],[-104.614,64.435],[-103.307,64.332],[-101.999,64.228],[-102.005,63.128],[-102.004,62.166],[-102.002,60.723],[-102.002,60.001],[-103.001,60.001],[-104.501,60.001],[-106.001,60.001],[-107.501,60.001],[-109,60.001],[-110,60.001]]],[[[-110.004,78.687],[-110.004,78.322],[-111.435,78.287],[-112.131,78.366],[-113.173,78.284],[-113.15,78.408],[-112.641,78.5],[-111.709,78.575],[-111.071,78.708],[-110.408,78.757],[-110.004,78.687]]],[[[-110.004,78.09],[-110.004,77.929],[-110.751,77.857],[-110.153,77.763],[-110.198,77.525],[-110.683,77.446],[-111.952,77.344],[-112.373,77.364],[-113.164,77.53],[-113.187,77.912],[-111.207,78.088],[-110.004,78.09]]],[[[-113.832,77.755],[-114.608,77.769],[-115.029,77.968],[-114.28,78.004],[-113.768,77.904],[-113.832,77.755]]],[[[-115.551,77.363],[-115.624,77.266],[-116.286,77.102],[-115.857,76.969],[-116.234,76.874],[-115.945,76.736],[-116.22,76.611],[-116.999,76.532],[-117.154,76.298],[-117.492,76.273],[-118.02,76.447],[-117.78,76.784],[-118.301,76.737],[-118.468,76.547],[-118.821,76.486],[-118.643,76.335],[-118.994,76.145],[-119.368,76.222],[-119.913,75.859],[-120.409,75.826],[-120.772,76.166],[-121.019,76.02],[-121.428,75.981],[-121.908,76.035],[-122.4,75.944],[-122.774,76.228],[-122.365,76.401],[-121.614,76.441],[-120.998,76.691],[-120.358,76.887],[-119.09,77.305],[-118.005,77.381],[-117.419,77.317],[-116.835,77.529],[-116.363,77.543],[-115.551,77.363]]],[[[-113.561,76.743],[-113.712,76.711],[-114.751,76.759],[-114.42,76.875],[-113.892,76.895],[-113.561,76.743]]],[[[-110.002,75.539],[-110.003,74.851],[-110.387,74.814],[-110.941,74.639],[-111.729,74.502],[-112.519,74.417],[-113.514,74.43],[-114.268,74.604],[-114.132,74.766],[-112.836,74.976],[-111.671,75.019],[-111.621,75.168],[-112.256,75.134],[-112.597,75.212],[-112.951,75.108],[-113.712,75.069],[-114.168,75.239],[-114.452,75.088],[-115.02,74.976],[-115.478,75.104],[-115.729,74.968],[-116.476,75.172],[-117.005,75.156],[-117.6,75.272],[-117.154,75.473],[-116.077,75.493],[-116.426,75.585],[-117.025,75.602],[-116.973,75.746],[-116.39,75.808],[-116.654,75.929],[-116.61,76.074],[-115.832,76.296],[-115.581,76.438],[-114.998,76.497],[-114.194,76.451],[-113.823,76.207],[-113.171,76.258],[-112.698,76.202],[-111.549,75.822],[-111.053,75.549],[-110.002,75.539]]],[[[-110.003,76.48],[-110.003,76.244],[-110.27,76.417],[-110.003,76.48]]],[[[-118.328,75.58],[-118.817,75.522],[-119.395,75.617],[-118.626,75.906],[-118.137,75.994],[-117.626,75.966],[-118.328,75.58]]],[[[-119.736,74.113],[-119.206,74.198],[-119.026,74.045],[-118.544,74.245],[-117.966,74.266],[-117.199,74.171],[-115.958,73.748],[-115.511,73.619],[-115.447,73.439],[-116.483,73.253],[-117.065,73.107],[-118.962,72.684],[-119.408,72.36],[-119.767,72.244],[-120.18,72.213],[-120.443,71.631],[-120.619,71.506],[-121.472,71.389],[-121.749,71.445],[-122.157,71.266],[-122.937,71.088],[-123.211,71.123],[-124.008,71.677],[-125.297,71.973],[-125.767,71.961],[-125.763,72.138],[-125.383,72.424],[-124.987,72.588],[-125,72.813],[-124.583,72.926],[-124.836,73.076],[-124.424,73.419],[-124.114,73.527],[-123.797,73.768],[-124.261,73.953],[-124.696,74.348],[-123.468,74.436],[-122.623,74.464],[-121.748,74.541],[-121.315,74.53],[-120.554,74.353],[-119.563,74.233],[-119.736,74.113]]],[[[-110.002,72.982],[-110.001,72.173],[-110,71.087],[-110,70.001],[-112.5,70.001],[-114.483,70.002],[-117.055,70.002],[-117.075,69.889],[-116.694,69.695],[-116.856,69.65],[-117.104,69.804],[-117.135,70.1],[-116.554,70.175],[-114.592,70.312],[-112.638,70.225],[-111.784,70.273],[-111.726,70.352],[-112.114,70.447],[-113.757,70.691],[-114.841,70.621],[-115.991,70.586],[-116.327,70.624],[-116.993,70.604],[-117.587,70.63],[-118.264,70.888],[-118.269,71.035],[-117.814,71.158],[-116.228,71.359],[-115.98,71.469],[-117.337,71.435],[-117.723,71.391],[-118.188,71.436],[-117.742,71.659],[-118.372,71.64],[-118.868,71.687],[-118.988,71.764],[-118.945,71.986],[-118.59,72.167],[-118.214,72.263],[-118.481,72.428],[-118.375,72.534],[-117.552,72.831],[-116.573,73.055],[-114.638,73.373],[-114.164,73.27],[-114.052,73.071],[-114.109,72.861],[-114.458,72.58],[-113.5,72.694],[-113.45,72.863],[-113.208,72.981],[-112.754,72.986],[-112.048,72.888],[-111.27,72.714],[-111.355,72.572],[-111.14,72.365],[-110.782,72.534],[-110.205,72.661],[-110.197,72.759],[-110.554,72.861],[-110.661,73.008],[-110.002,72.982]]]]}},{"type":"Feature","properties":{"code":"NU","name":"Nunavut"},"geometry":{"type":"MultiPolygon","coordinates":[[[[-94.772,60.002],[-97.052,60.001],[-98.852,60.001],[-100.202,60.001],[-102.002,60.001],[-102.002,60.723],[-102.004,62.166],[-102.005,63.128],[-101.999,64.228],[-103.307,64.332],[-104.614,64.435],[-106.794,64.607],[-108.973,64.779],[-109.516,64.903],[-110.669,65.497],[-112.504,65.502],[-114.292,66.049],[-115.569,66.44],[-117.357,66.987],[-119.145,67.534],[-120.678,68.003],[-120.679,68.62],[-120.682,69.567],[-120.293,69.421],[-119.853,69.342],[-118.869,69.257],[-118.095,69.043],[-117.132,68.907],[-116.065,68.855],[-116.252,68.958],[-115.631,68.973],[-114.994,68.85],[-114.414,68.66],[-113.964,68.399],[-114.096,68.267],[-114.765,68.27],[-115.127,68.132],[-115.167,68.019],[-115.427,67.924],[-115.133,67.819],[-114.267,67.731],[-113.682,67.7],[-112.435,67.685],[-112.237,67.731],[-111.576,67.757],[-111.192,67.823],[-110.99,67.791],[-110.372,67.954],[-110.043,67.977],[-109.63,67.733],[-109.081,67.711],[-108.95,67.494],[-108.593,67.591],[-108.347,67.403],[-107.989,67.256],[-108.088,67.07],[-108.455,67.063],[-107.761,66.684],[-107.746,66.961],[-107.626,67.003],[-107.157,66.882],[-107.644,67.385],[-107.65,67.511],[-107.972,67.732],[-107.763,67.907],[-107.761,68.032],[-106.836,68.129],[-106.404,68.319],[-105.781,68.527],[-105.932,68.637],[-106.458,68.516],[-106.608,68.357],[-106.946,68.374],[-107.146,68.304],[-107.619,68.331],[-107.734,68.174],[-108.261,68.15],[-108.687,68.277],[-108.641,68.379],[-108.313,68.611],[-107.436,68.689],[-106.164,68.92],[-105.798,68.865],[-105.54,68.719],[-105.429,68.458],[-105.195,68.33],[-104.636,68.214],[-104.487,68.063],[-104.194,68.031],[-103.474,68.115],[-102.692,67.812],[-102.21,67.733],[-101.555,67.693],[-100.456,67.839],[-99.773,67.815],[-99.147,67.724],[-98.92,67.726],[-98.417,67.826],[-97.455,67.617],[-97.155,67.726],[-97.207,67.855],[-97.739,67.978],[-98.111,67.903],[-98.438,68.065],[-98.381,68.132],[-98.633,68.331],[-98.219,68.317],[-97.794,68.388],[-97.939,68.51],[-97.266,68.453],[-96.977,68.255],[-96.48,68.243],[-96.439,68.151],[-96.036,68.158],[-96.199,67.718],[-96.371,67.554],[-96.013,67.271],[-95.782,67.194],[-95.259,67.263],[-95.463,67.61],[-95.65,67.737],[-95.461,68.021],[-95.126,68.083],[-94.744,68.071],[-93.928,68.474],[-93.652,68.543],[-93.681,68.887],[-94.478,68.743],[-94.563,68.912],[-94.084,69.123],[-94.255,69.314],[-93.613,69.403],[-94.271,69.455],[-94.634,69.65],[-94.823,69.578],[-95.292,69.667],[-96.119,69.872],[-96.492,70.125],[-96.546,70.327],[-96.226,70.542],[-96.549,70.809],[-96.406,71.274],[-96.14,71.396],[-95.564,71.337],[-95.406,71.492],[-95.838,71.598],[-95.201,71.904],[-94.557,71.979],[-94.308,71.765],[-93.81,71.766],[-93.763,71.638],[-93.256,71.461],[-92.949,71.262],[-92.883,71.069],[-92.981,70.852],[-92.388,70.65],[-92.049,70.39],[-91.82,70.342],[-91.564,70.178],[-91.995,70.143],[-92.29,70.24],[-92.512,70.104],[-91.977,70.039],[-92.751,69.714],[-92.312,69.673],[-91.912,69.531],[-91.384,69.649],[-91.288,69.543],[-90.555,69.504],[-90.822,69.291],[-91.237,69.286],[-90.745,69.106],[-90.468,68.864],[-90.574,68.475],[-90.248,68.267],[-89.879,68.522],[-89.667,69.015],[-89.352,69.227],[-89.057,69.266],[-88.638,69.059],[-88.041,68.812],[-87.81,68.404],[-87.893,68.248],[-88.347,68.288],[-88.314,67.95],[-88.196,67.766],[-87.499,67.355],[-87.266,67.184],[-86.536,67.516],[-86.37,67.825],[-85.953,68.072],[-85.731,68.445],[-85.734,68.63],[-85.518,68.77],[-85.275,68.741],[-84.916,68.962],[-84.862,69.074],[-85.387,69.232],[-85.507,69.845],[-85.02,69.805],[-84.242,69.835],[-83.665,69.7],[-82.618,69.691],[-82.374,69.642],[-82.642,69.458],[-82.31,69.41],[-81.952,69.276],[-81.412,69.198],[-81.329,69.12],[-81.952,68.909],[-81.381,68.85],[-81.282,68.657],[-81.527,68.556],[-82.006,68.463],[-82.21,68.506],[-82.553,68.446],[-81.976,67.862],[-81.412,67.595],[-81.27,67.46],[-81.468,67.07],[-81.874,66.988],[-82.198,66.765],[-82.642,66.588],[-82.949,66.551],[-83.298,66.392],[-83.523,66.369],[-83.92,66.679],[-84.324,66.782],[-84.538,66.973],[-84.738,66.934],[-84.223,66.682],[-83.826,66.29],[-83.905,66.212],[-84.293,66.292],[-84.478,66.179],[-85.096,66.325],[-85.442,66.537],[-85.604,66.568],[-86.063,66.52],[-86.633,66.531],[-86.747,66.417],[-86.585,66.322],[-86.001,66.187],[-86.043,66.023],[-87.291,65.355],[-87.97,65.349],[-88.672,65.612],[-89.749,65.936],[-89.924,65.78],[-89.242,65.446],[-88.974,65.348],[-88.198,65.28],[-87.392,65.261],[-87.028,65.198],[-87.029,65.064],[-87.281,64.826],[-87.885,64.4],[-88.106,64.183],[-88.653,64.009],[-89.404,64.04],[-89.861,63.979],[-90.142,63.982],[-90.013,63.804],[-90.245,63.642],[-90.596,63.661],[-90.946,63.588],[-91.539,63.726],[-92.195,63.776],[-92.97,63.938],[-93.379,63.948],[-92.157,63.692],[-91.842,63.698],[-91.33,63.507],[-90.97,63.443],[-90.747,63.352],[-90.691,63.111],[-90.871,62.946],[-91.115,62.922],[-91.449,62.804],[-92.034,62.863],[-92.361,62.819],[-92.207,62.585],[-92.551,62.547],[-92.866,62.306],[-93.016,62.093],[-93.372,61.929],[-93.421,61.706],[-93.71,61.603],[-94.061,61.318],[-94.068,61.139],[-94.647,60.416],[-94.772,60.002]]],[[[-110.004,78.322],[-110.004,78.687],[-109.504,78.582],[-109.391,78.337],[-110.004,78.322]]],[[[-110.003,74.851],[-110.002,75.539],[-109.086,75.506],[-108.945,75.699],[-109.796,75.863],[-109.455,76.021],[-109.487,76.145],[-110.003,76.244],[-110.003,76.48],[-109.339,76.76],[-108.832,76.821],[-108.467,76.738],[-108.628,76.587],[-108.512,76.439],[-108.123,76.233],[-108.387,76.067],[-107.852,76.058],[-107.755,75.94],[-107.136,75.879],[-106.397,76.06],[-105.604,75.93],[-105.481,75.746],[-105.863,75.192],[-106.093,75.089],[-107.153,74.927],[-107.82,75],[-108.354,74.943],[-108.831,75.065],[-109.503,74.883],[-110.003,74.851]]],[[[-116.856,69.65],[-116.694,69.695],[-117.075,69.889],[-117.055,70.002],[-114.483,70.002],[-112.5,70.001],[-110,70.001],[-110,71.087],[-110.001,72.173],[-110.002,72.982],[-109.122,72.726],[-108.698,72.499],[-108.21,71.751],[-107.925,71.639],[-107.347,71.819],[-107.306,71.895],[-107.696,72.149],[-107.933,72.52],[-108.238,73.106],[-107.72,73.329],[-107.113,73.192],[-106.951,73.276],[-106.482,73.196],[-105.813,73.011],[-105.415,72.788],[-105.234,72.415],[-104.767,71.868],[-104.386,71.577],[-104.35,71.434],[-104.57,71.104],[-104.167,70.927],[-103.953,70.763],[-103.105,70.51],[-102.75,70.522],[-101.99,70.285],[-101.627,70.248],[-101.562,70.135],[-101.149,70.148],[-100.973,70.029],[-100.935,69.715],[-101.648,69.699],[-102.182,69.846],[-102.596,69.718],[-102.621,69.552],[-103.465,69.644],[-102.884,69.341],[-102.447,69.476],[-101.976,69.407],[-102.064,69.281],[-101.823,69.217],[-101.857,69.024],[-102.895,68.824],[-103.468,68.809],[-104.353,68.928],[-104.571,68.872],[-105.106,68.92],[-105.02,69.081],[-106.141,69.162],[-106.341,69.224],[-106.361,69.381],[-106.659,69.44],[-107.033,69.181],[-107.44,69.002],[-108.365,68.935],[-108.946,68.76],[-109.959,68.63],[-111.311,68.542],[-113.128,68.494],[-113.338,68.599],[-113.617,68.838],[-113.694,69.195],[-114.323,69.269],[-115.159,69.265],[-116.102,69.337],[-116.514,69.425],[-116.856,69.65]]],[[[-86.596,67.736],[-86.861,67.81],[-86.847,68.01],[-86.96,68.1],[-86.702,68.306],[-86.421,68.183],[-86.382,67.927],[-86.596,67.736]]],[[[-73.622,67.784],[-74.374,67.79],[-74.573,67.829],[-74.707,68.067],[-74.379,68.093],[-73.435,67.97],[-73.407,67.793],[-73.622,67.784]]],[[[-83.726,65.797],[-83.234,65.697],[-83.381,65.63],[-83.814,65.788],[-84.118,65.772],[-84.143,65.916],[-83.95,66.027],[-83.701,65.92],[-83.726,65.797]]],[[[-84.675,65.575],[-84.783,65.57],[-85.136,65.821],[-85.15,66.015],[-84.939,66.009],[-84.603,65.657],[-84.675,65.575]]],[[[-84.92,65.261],[-84.612,65.447],[-84.266,65.367],[-84.085,65.218],[-83.407,65.104],[-83.222,64.968],[-82.668,64.78],[-82.05,64.644],[-81.787,64.426],[-81.676,64.213],[-81.716,64.022],[-81.336,64.076],[-81.005,64.033],[-80.829,64.09],[-80.302,63.762],[-81.046,63.462],[-81.963,63.664],[-82.378,63.707],[-82.467,63.927],[-83.034,64.023],[-83.065,64.159],[-83.494,64.099],[-83.728,63.813],[-84.022,63.66],[-84.308,63.586],[-84.633,63.309],[-84.962,63.197],[-85.496,63.139],[-85.714,63.658],[-85.805,63.707],[-86.576,63.662],[-86.847,63.575],[-87.189,63.672],[-86.886,63.924],[-86.422,64.052],[-86.252,64.137],[-86.374,64.566],[-86.188,65.01],[-86.114,65.417],[-85.962,65.704],[-85.814,65.832],[-85.555,65.919],[-85.241,65.796],[-85.105,65.623],[-85.24,65.51],[-85.056,65.437],[-84.92,65.261]]],[[[-76.678,63.394],[-77.057,63.45],[-77.365,63.588],[-77.134,63.682],[-76.764,63.574],[-76.678,63.394]]],[[[-77.877,63.471],[-77.538,63.287],[-77.594,63.188],[-77.942,63.114],[-78.469,63.358],[-78.235,63.49],[-77.877,63.471]]],[[[-82,62.954],[-81.949,62.884],[-82.114,62.652],[-82.568,62.403],[-83.016,62.21],[-83.377,62.238],[-83.699,62.16],[-83.899,62.476],[-83.739,62.569],[-83.376,62.905],[-82.966,62.874],[-82.706,62.945],[-82.235,62.977],[-82,62.954]]],[[[-70.337,62.549],[-70.766,62.597],[-70.851,62.704],[-70.674,62.807],[-70.443,62.734],[-70.337,62.549]]],[[[-64.824,62.559],[-64.515,62.552],[-64.478,62.418],[-64.901,62.421],[-64.824,62.559]]],[[[-79.545,62.412],[-79.286,62.248],[-79.324,62.026],[-79.714,61.613],[-79.816,61.595],[-80.276,61.859],[-80.235,62.153],[-79.868,62.404],[-79.545,62.412]]],[[[-64.833,61.366],[-65.394,61.563],[-65.432,61.65],[-65.13,61.686],[-64.79,61.662],[-64.67,61.593],[-64.833,61.366]]],[[[-68.234,60.241],[-68.338,60.361],[-68.142,60.562],[-67.914,60.54],[-67.844,60.392],[-68.234,60.241]]],[[[-64.407,60.367],[-64.809,60.41],[-64.646,60.515],[-64.407,60.367]]],[[[-78.936,56.266],[-79.175,55.885],[-79.407,55.935],[-79.765,55.807],[-79.497,56.093],[-79.565,56.121],[-79.905,55.871],[-80.001,55.932],[-79.596,56.244],[-79.393,56.276],[-79.272,56.6],[-78.963,56.422],[-78.936,56.266]]],[[[-80.732,52.747],[-81.01,52.761],[-81.839,52.958],[-82.039,53.05],[-81.847,53.186],[-81.335,53.224],[-81.136,53.206],[-80.765,52.923],[-80.732,52.747]]],[[[-69.489,83.017],[-68.107,82.961],[-66.592,82.944],[-66.836,82.818],[-64.777,82.876],[-63.473,82.771],[-63.085,82.565],[-61.392,82.442],[-61.274,82.28],[-62.177,82.043],[-64.574,81.734],[-66.626,81.616],[-66.914,81.485],[-68.689,81.293],[-68.318,81.261],[-65.736,81.494],[-64.78,81.493],[-65.484,81.285],[-66.727,81.041],[-68.63,80.679],[-69.4,80.423],[-70.143,80.398],[-70.568,80.094],[-71.356,79.911],[-71.388,79.762],[-72.437,79.694],[-73.448,79.827],[-73.229,79.644],[-73.466,79.495],[-75.259,79.421],[-76.296,79.414],[-76.116,79.326],[-75.094,79.204],[-74.481,79.229],[-74.532,79.053],[-75.233,79.036],[-75.912,79.118],[-76.256,79.007],[-75.795,78.89],[-75.099,78.858],[-74.433,78.724],[-74.879,78.545],[-76.373,78.521],[-75.193,78.328],[-75.551,78.221],[-75.866,78.01],[-76.974,77.927],[-78.013,77.946],[-78.076,77.519],[-78.284,77.413],[-78.87,77.333],[-79.906,77.3],[-80.573,77.315],[-80.274,77.151],[-79.341,77.158],[-79.221,76.936],[-78.792,76.884],[-78.289,76.978],[-77.983,76.755],[-78.284,76.571],[-79.511,76.31],[-80.69,76.176],[-80.997,76.215],[-80.835,76.369],[-81.171,76.513],[-81.592,76.484],[-82.034,76.629],[-82.233,76.466],[-83.886,76.453],[-84.275,76.357],[-85.141,76.305],[-85.681,76.349],[-86.296,76.492],[-86.68,76.377],[-88.396,76.405],[-89.57,76.492],[-89.5,76.827],[-88.398,77.104],[-87.362,77.136],[-86.874,77.2],[-87.78,77.493],[-88.095,77.719],[-87.497,77.872],[-87.018,77.892],[-86.173,77.746],[-85.588,77.461],[-84.739,77.361],[-83.974,77.391],[-83.779,77.533],[-85.289,77.559],[-85.292,77.764],[-85.548,77.928],[-84.615,78.196],[-84.91,78.24],[-85.586,78.11],[-86.218,78.081],[-87.552,78.177],[-87.491,78.417],[-86.808,78.774],[-85.23,78.902],[-83.908,78.839],[-83.271,78.77],[-83.059,78.94],[-84.316,78.975],[-84.53,79.101],[-84.197,79.225],[-85.09,79.612],[-86.031,79.722],[-86.421,79.845],[-86.615,80.124],[-86.307,80.319],[-83.724,80.229],[-82.377,79.908],[-81.856,79.723],[-81.01,79.693],[-82.332,80.066],[-82.961,80.278],[-82.536,80.376],[-80.98,80.445],[-80.051,80.529],[-79.629,80.648],[-78.386,80.784],[-76.85,80.878],[-78.551,80.921],[-78.629,81.043],[-79.198,81.118],[-79.607,80.882],[-81.007,80.655],[-82.368,80.561],[-82.337,80.729],[-83.401,80.714],[-84.076,80.556],[-85.307,80.526],[-86.25,80.566],[-86.603,80.664],[-86.252,80.79],[-85.246,80.988],[-85.781,81.035],[-87.33,80.67],[-87.712,80.656],[-88.921,80.806],[-89.263,80.914],[-88.413,81],[-87.389,80.988],[-86.477,81.036],[-85.083,81.247],[-85.402,81.285],[-86.623,81.123],[-87.275,81.081],[-89.623,81.032],[-89.947,81.173],[-88.978,81.541],[-90.304,81.401],[-90.554,81.464],[-89.845,81.612],[-91.648,81.684],[-90.49,81.877],[-89.381,81.917],[-88.567,82.061],[-86.627,82.051],[-85.646,81.953],[-85.311,82.044],[-86.581,82.187],[-84.897,82.449],[-82.537,82.247],[-80.55,82.005],[-80.13,82.028],[-81.998,82.278],[-82.451,82.427],[-81.681,82.519],[-82.123,82.602],[-80.657,82.769],[-79.207,82.733],[-79.886,82.939],[-77.48,82.883],[-77.125,83.009],[-75.745,83.047],[-73.331,82.999],[-72.812,83.081],[-69.97,83.116],[-69.489,83.017]]],[[[-91.886,81.133],[-90.643,80.594],[-89.862,80.498],[-89.167,80.48],[-88.644,80.387],[-87.675,80.372],[-87.625,80.187],[-86.977,79.894],[-87.144,79.663],[-85.501,79.53],[-85.064,79.328],[-85.29,79.208],[-86.092,79.1],[-87.016,78.899],[-87.983,78.537],[-88.606,78.392],[-88.791,78.192],[-90.327,78.185],[-90.614,78.15],[-91.899,78.237],[-92.678,78.389],[-92.726,78.487],[-93.267,78.608],[-94.163,78.994],[-93.294,79.14],[-92.684,79.186],[-92.547,79.283],[-92.822,79.45],[-93.933,79.291],[-94.405,79.391],[-95.103,79.29],[-95.733,79.418],[-95.297,79.653],[-96,79.705],[-96.589,79.917],[-96.773,80.136],[-95.782,80.066],[-94.646,80.049],[-94.59,80.202],[-95.405,80.135],[-96.368,80.293],[-95.614,80.396],[-96.152,80.553],[-96.133,80.691],[-94.788,80.751],[-95.515,80.838],[-95.27,81.001],[-93.236,81.129],[-94.194,81.241],[-94.06,81.349],[-93.333,81.364],[-92.413,81.278],[-91.886,81.133]]],[[[-98.792,79.981],[-98.841,79.737],[-99.516,79.887],[-100.092,79.919],[-100.053,80.093],[-99.731,80.144],[-98.895,80.082],[-98.792,79.981]]],[[[-103.426,79.316],[-102.914,79.231],[-102.652,79.095],[-101.873,79.088],[-100.435,78.82],[-99.609,78.583],[-99.848,78.438],[-99.751,78.303],[-99.132,78.118],[-99.166,77.857],[-99.956,77.794],[-100.586,77.892],[-101.074,78.194],[-102.057,78.28],[-102.607,78.249],[-102.731,78.371],[-104.324,78.269],[-104.764,78.352],[-104.996,78.519],[-104.727,78.579],[-103.764,78.52],[-103.483,78.594],[-103.518,78.769],[-103.876,78.903],[-105.536,79.033],[-105.388,79.324],[-103.706,79.352],[-103.426,79.316]]],[[[-96.205,78.531],[-95.561,78.517],[-94.887,78.345],[-95.329,78.225],[-94.936,78.106],[-95.087,77.993],[-96.99,77.806],[-97.093,77.933],[-97.658,78.091],[-98.255,78.429],[-98.06,78.558],[-98.212,78.805],[-97.382,78.783],[-96.587,78.687],[-96.205,78.531]]],[[[-101.694,77.697],[-102.458,77.77],[-102.448,77.881],[-101.639,77.892],[-101.002,77.735],[-101.694,77.697]]],[[[-95.484,77.792],[-93.583,77.771],[-93.301,77.74],[-93.52,77.474],[-95.987,77.484],[-96.264,77.595],[-96.143,77.714],[-95.484,77.792]]],[[[-104.558,77.142],[-105.215,77.182],[-105.556,77.353],[-106.066,77.725],[-105.588,77.736],[-104.542,77.338],[-104.558,77.142]]],[[[-89.833,77.268],[-90.228,77.212],[-91.147,77.387],[-91.149,77.608],[-90.843,77.655],[-90.172,77.595],[-89.719,77.442],[-89.833,77.268]]],[[[-94.295,76.912],[-93.811,76.914],[-92.716,76.603],[-91.305,76.681],[-90.738,76.581],[-90.855,76.437],[-89.285,76.302],[-89.407,76.189],[-90.312,76.158],[-91.26,76.23],[-91.279,76.16],[-90.251,76.053],[-89.205,75.762],[-89.28,75.564],[-88.569,75.645],[-88.201,75.512],[-87.257,75.618],[-86.814,75.491],[-86.236,75.406],[-86.069,75.502],[-84.987,75.645],[-84.605,75.653],[-83.932,75.819],[-83.237,75.751],[-82.154,75.831],[-81.151,75.736],[-81.001,75.643],[-80.322,75.629],[-80.1,75.467],[-79.66,75.45],[-79.508,75.295],[-79.634,75.199],[-80.358,75.052],[-79.525,74.99],[-79.508,74.88],[-80.213,74.749],[-80.278,74.582],[-81.226,74.567],[-81.809,74.477],[-82.931,74.566],[-83.341,74.765],[-83.532,74.586],[-84.426,74.508],[-86.11,74.54],[-86.666,74.489],[-87.593,74.47],[-88.423,74.494],[-88.778,74.715],[-89.844,74.549],[-90.553,74.613],[-90.784,74.696],[-91.508,74.651],[-91.962,74.793],[-92.174,75.051],[-92.076,75.124],[-92.427,75.346],[-92.069,75.658],[-92.185,75.847],[-93.092,76.354],[-93.665,76.273],[-94.737,76.293],[-95.274,76.264],[-95.789,76.537],[-96.64,76.703],[-96.433,76.811],[-96.758,76.972],[-95.638,77.064],[-94.295,76.912]]],[[[-89.726,76.507],[-90.054,76.495],[-90.556,76.735],[-89.949,76.836],[-89.695,76.741],[-89.726,76.507]]],[[[-97.701,76.466],[-97.531,76.182],[-97.602,75.851],[-97.863,75.738],[-97.408,75.673],[-97.41,75.552],[-97.878,75.416],[-97.799,75.117],[-98.569,75.009],[-99.421,75.044],[-99.627,74.984],[-100.234,75.008],[-100.712,75.406],[-100.28,75.461],[-99.591,75.655],[-99.915,75.681],[-101.207,75.59],[-101.461,75.608],[-102.541,75.514],[-102.797,75.6],[-102.252,75.778],[-102.145,75.875],[-101.6,75.833],[-101.431,75.992],[-101.872,76.083],[-101.529,76.217],[-102.138,76.285],[-101.858,76.439],[-101.34,76.41],[-101.056,76.246],[-99.978,76.029],[-100.83,76.524],[-100.388,76.614],[-99.024,76.615],[-98.711,76.694],[-97.701,76.466]]],[[[-104.023,76.583],[-103.051,76.45],[-103.472,76.329],[-104.271,76.326],[-104.586,76.606],[-104.023,76.583]]],[[[-102.227,76.015],[-102.047,75.928],[-102.58,75.78],[-103.315,75.764],[-103.042,75.919],[-103.77,75.892],[-103.801,76.037],[-104.242,76.047],[-104.351,76.182],[-103.098,76.311],[-102.584,76.282],[-102.49,76.095],[-102.227,76.015]]],[[[-94.527,75.749],[-94.901,75.931],[-94.538,75.996],[-94.296,75.788],[-94.527,75.749]]],[[[-93.543,75.028],[-93.547,74.691],[-93.985,74.644],[-94.697,74.642],[-95.286,74.794],[-95.865,74.83],[-96.27,74.92],[-96.566,75.099],[-96.18,75.24],[-96.125,75.358],[-95.671,75.529],[-95.05,75.622],[-94.427,75.593],[-93.751,75.349],[-93.498,75.137],[-93.543,75.028]]],[[[-104.12,75.036],[-104.634,75.061],[-104.887,75.148],[-104.649,75.35],[-104.346,75.43],[-103.804,75.346],[-103.642,75.163],[-104.12,75.036]]],[[[-93.171,74.161],[-92.493,74.062],[-92.223,73.972],[-91.63,74.028],[-91.088,74.009],[-90.355,73.869],[-90.566,73.686],[-90.934,73.528],[-91.621,73.026],[-92.118,72.754],[-92.392,72.718],[-93.341,72.802],[-94.211,72.757],[-93.771,72.668],[-93.555,72.421],[-93.871,72.253],[-94.038,72.029],[-95.193,72.027],[-95.251,72.502],[-95.548,72.782],[-95.633,73.695],[-95.059,73.805],[-95.153,73.933],[-94.974,74.041],[-94.483,74.113],[-93.171,74.161]]],[[[-98.27,73.869],[-98.974,73.812],[-99.385,73.879],[-98.904,74.007],[-98.061,74.105],[-97.861,73.968],[-98.27,73.869]]],[[[-100.002,73.946],[-99.158,73.732],[-97.582,73.888],[-97.225,73.844],[-97.002,73.666],[-97.395,73.564],[-97.273,73.387],[-97.796,73.285],[-98.437,73],[-97.725,73.037],[-97.329,72.938],[-97.052,72.637],[-96.542,72.699],[-96.44,72.487],[-96.796,72.314],[-96.593,72.204],[-96.766,72.046],[-96.613,71.834],[-96.947,71.792],[-97.222,71.674],[-97.582,71.63],[-98.181,71.662],[-98.199,71.441],[-98.663,71.302],[-99.167,71.367],[-99.735,71.757],[-100.594,72.152],[-100.984,72.21],[-101.209,72.317],[-101.724,72.315],[-101.974,72.486],[-102.402,72.595],[-102.714,72.783],[-102.504,73.006],[-101.922,73.057],[-101.351,72.746],[-101.088,72.713],[-100.485,72.773],[-100.283,73.12],[-100.439,73.255],[-100.889,73.275],[-101.451,73.431],[-101.323,73.572],[-100.976,73.6],[-100.915,73.805],[-100.002,73.946]]],[[[-86.589,71.011],[-86.127,71.049],[-85.644,71.152],[-85.095,71.152],[-84.79,71.093],[-84.66,71.586],[-85.25,71.675],[-85.912,71.987],[-85.406,72.215],[-84.643,72.19],[-84.849,72.406],[-85.341,72.422],[-85.638,72.633],[-85.645,72.774],[-85.262,72.954],[-85.455,73.105],[-85.018,73.336],[-84.416,73.456],[-84.089,73.459],[-83.73,73.576],[-82.66,73.73],[-81.946,73.73],[-81.406,73.635],[-81.152,73.314],[-80.681,73.166],[-80.592,72.928],[-80.275,72.746],[-80.675,72.559],[-80.605,72.426],[-80.941,72.21],[-80.802,71.929],[-80.386,72.149],[-80.116,72.214],[-80.042,72.394],[-79.654,72.332],[-79.323,72.391],[-79,72.272],[-78.699,72.351],[-78.287,72.36],[-78.479,72.509],[-78.001,72.688],[-77.567,72.737],[-76.893,72.721],[-76.189,72.572],[-75.704,72.572],[-75.294,72.481],[-74.903,72.101],[-74.266,72.038],[-74.316,71.843],[-74.701,71.676],[-73.714,71.72],[-73.713,71.588],[-73.482,71.479],[-72.902,71.678],[-72.581,71.607],[-72.116,71.593],[-71.641,71.516],[-71.256,71.362],[-71.219,71.239],[-71.743,71.047],[-71.186,70.978],[-70.792,71.103],[-70.655,70.871],[-71.022,70.674],[-71.586,70.566],[-71.276,70.5],[-70.561,70.738],[-69.95,70.845],[-69.695,70.786],[-69.169,70.764],[-68.496,70.61],[-68.364,70.481],[-68.794,70.324],[-69.299,70.277],[-70.061,70.071],[-69.796,70.047],[-69.483,70.16],[-68.919,70.207],[-68.723,70.146],[-69.008,69.979],[-68.744,69.941],[-68.319,70.161],[-68.204,70.282],[-67.855,70.282],[-67.364,70.034],[-67.173,69.799],[-67.259,69.721],[-67.806,69.777],[-68.114,69.754],[-68.513,69.577],[-68.058,69.476],[-67.361,69.472],[-66.771,69.337],[-66.803,69.153],[-67.484,69.167],[-67.938,69.248],[-68.304,69.166],[-67.752,69.039],[-67.883,68.784],[-68.324,68.844],[-68.038,68.551],[-66.762,68.425],[-67.033,68.326],[-66.729,68.129],[-66.531,68.25],[-66.212,68.28],[-66.225,67.959],[-65.864,67.923],[-65.702,67.987],[-65.3,67.94],[-64.977,68.043],[-65.021,67.788],[-64.528,67.813],[-64.156,67.623],[-64.008,67.347],[-63.592,67.378],[-63.04,67.235],[-63.258,67.025],[-63.702,66.822],[-62.962,66.949],[-62.38,66.905],[-61.969,67.019],[-61.3,66.649],[-61.528,66.558],[-61.904,66.678],[-62.089,66.626],[-61.653,66.503],[-61.571,66.373],[-61.863,66.313],[-62.406,66.316],[-62.534,66.227],[-61.992,66.035],[-62.448,65.945],[-62.382,65.833],[-62.659,65.64],[-62.969,65.622],[-63.421,65.709],[-63.364,65.543],[-63.402,65.118],[-63.607,64.928],[-63.896,65.109],[-64.152,65.066],[-64.47,65.253],[-64.665,65.169],[-65.108,65.464],[-65.402,65.764],[-65.305,66.008],[-65.826,65.997],[-65.857,66.086],[-66.477,66.28],[-66.787,66.556],[-67.318,66.52],[-67.192,66.433],[-67.311,66.304],[-67.883,66.467],[-67.704,66.269],[-67.183,66.034],[-67.551,65.922],[-67.828,65.965],[-68.147,66.13],[-68.257,65.939],[-67.866,65.774],[-67.906,65.563],[-67.57,65.644],[-67.303,65.483],[-67.326,65.357],[-66.861,65.092],[-66.224,64.854],[-65.768,64.854],[-65.275,64.632],[-65.075,64.437],[-65.213,64.303],[-65.507,64.318],[-65.011,64.009],[-64.678,64.028],[-64.411,63.706],[-64.562,63.68],[-64.514,63.264],[-64.696,63.269],[-64.886,63.549],[-65.069,63.263],[-64.672,62.922],[-64.923,62.889],[-65.163,62.933],[-65.047,62.701],[-65.266,62.715],[-65.74,62.932],[-65.979,63.001],[-66.636,63.08],[-66.975,63.256],[-67.18,63.305],[-67.709,63.634],[-67.838,63.449],[-68.494,63.725],[-68.911,63.703],[-68.671,63.514],[-68.141,63.172],[-67.676,63.094],[-67.468,62.948],[-66.98,62.701],[-66.645,62.602],[-66.281,62.303],[-65.98,62.209],[-66.133,62.102],[-66.059,61.914],[-66.257,61.868],[-67.44,62.151],[-68.379,62.235],[-69.082,62.405],[-69.366,62.572],[-69.545,62.745],[-69.8,62.79],[-70.236,62.763],[-71.254,63.043],[-71.617,63.187],[-71.973,63.43],[-71.697,63.43],[-71.456,63.512],[-71.725,63.706],[-72.223,63.709],[-72.586,63.901],[-73.444,64.424],[-73.278,64.56],[-73.627,64.603],[-73.91,64.578],[-74.512,64.67],[-74.634,64.824],[-74.919,64.766],[-74.64,64.557],[-75.067,64.457],[-75.488,64.541],[-75.715,64.524],[-75.767,64.392],[-76.118,64.376],[-76.724,64.242],[-77.283,64.28],[-77.791,64.367],[-78.175,64.618],[-78.096,64.939],[-77.876,65.073],[-77.447,65.162],[-77.461,65.328],[-77.327,65.453],[-76.482,65.37],[-75.828,65.227],[-75.709,65.316],[-75.166,65.284],[-74.982,65.381],[-74.391,65.398],[-74.237,65.484],[-73.561,65.543],[-73.746,65.767],[-74.033,65.877],[-74.434,66.139],[-74.375,66.208],[-73.934,66.358],[-73.201,66.699],[-73.033,66.728],[-72.789,67.031],[-72.365,67.133],[-72.22,67.254],[-72.353,67.342],[-72.576,67.659],[-73.063,68.107],[-73.328,68.267],[-73.644,68.295],[-73.879,68.429],[-73.782,68.578],[-74.27,68.541],[-74.648,68.708],[-74.917,68.983],[-75.213,68.909],[-75.623,68.888],[-76.403,68.692],[-76.619,68.721],[-76.557,69.009],[-75.954,69.031],[-75.668,69.159],[-75.787,69.319],[-76.408,69.441],[-76.52,69.517],[-77.129,69.653],[-76.962,69.825],[-77.494,69.836],[-77.635,69.9],[-77.722,70.171],[-77.843,70.247],[-78.283,70.229],[-78.621,70.353],[-78.98,70.581],[-79.347,70.482],[-79.347,70.372],[-79.018,70.325],[-78.81,70.179],[-78.89,69.978],[-79.303,69.895],[-79.616,69.895],[-80.162,69.996],[-81.098,70.091],[-81.197,69.983],[-80.925,69.851],[-80.922,69.731],[-81.565,69.943],[-82.139,69.841],[-82.488,69.866],[-83.091,70.004],[-83.859,69.963],[-84.522,70.005],[-84.909,70.078],[-85.432,70.111],[-85.78,70.037],[-86.322,70.145],[-86.624,70.401],[-87.122,70.412],[-87.901,70.252],[-88.402,70.442],[-88.848,70.523],[-89.208,70.76],[-89.366,71.067],[-88.696,71.046],[-87.845,70.944],[-87.182,70.988],[-87.872,71.209],[-89.079,71.288],[-89.846,71.492],[-90.025,71.949],[-89.664,72.158],[-89.823,72.208],[-89.862,72.412],[-89.358,72.804],[-89.263,73.069],[-88.705,73.403],[-87.72,73.723],[-86.769,73.834],[-85.951,73.85],[-85.11,73.808],[-84.974,73.695],[-85.682,73.461],[-86.086,73.26],[-86.629,72.871],[-86.595,72.661],[-86.323,72.461],[-86.341,72.123],[-86.218,71.899],[-86.036,71.771],[-85.023,71.353],[-85.405,71.227],[-85.945,71.163],[-86.589,71.011]]],[[[-79.537,73.654],[-78.287,73.666],[-77.207,73.5],[-76.29,73.081],[-76.09,72.881],[-76.401,72.821],[-77.836,72.897],[-78.314,72.882],[-79.134,72.772],[-79.501,72.756],[-79.937,72.864],[-80.183,73.225],[-80.618,73.271],[-80.824,73.381],[-80.849,73.721],[-80.412,73.765],[-79.537,73.654]]],[[[-105.289,72.92],[-106.071,73.196],[-106.18,73.304],[-106.922,73.48],[-106.614,73.696],[-105.512,73.766],[-105.114,73.744],[-104.649,73.614],[-104.583,73.354],[-104.791,73.168],[-105.289,72.92]]],[[[-96.782,72.937],[-97.093,72.997],[-97.069,73.13],[-96.598,73.074],[-96.782,72.937]]],[[[-97.439,69.643],[-97.236,69.673],[-96.875,69.51],[-96.3,69.344],[-95.951,69.024],[-95.466,68.747],[-95.686,68.736],[-96.402,68.471],[-97.008,68.539],[-97.472,68.544],[-97.885,68.672],[-98.83,68.839],[-99.254,68.863],[-99.564,69.034],[-99.456,69.131],[-98.912,69.168],[-98.456,69.335],[-98.548,69.545],[-98.289,69.629],[-98.268,69.754],[-97.791,69.862],[-97.411,69.738],[-97.439,69.643]]],[[[-79.431,69.788],[-79.553,69.631],[-80.161,69.536],[-80.653,69.751],[-80.214,69.802],[-79.971,69.739],[-79.431,69.788]]],[[[-78.029,69.715],[-77.969,69.639],[-78.47,69.503],[-78.579,69.639],[-78.029,69.715]]],[[[-95.514,69.574],[-95.381,69.507],[-95.496,69.35],[-95.995,69.47],[-95.876,69.606],[-95.514,69.574]]],[[[-76.995,69.144],[-77.215,69.138],[-77.379,69.274],[-77.319,69.416],[-76.746,69.404],[-76.687,69.328],[-76.995,69.144]]],[[[-79.211,68.845],[-79.406,68.923],[-79.243,69.049],[-78.9,69.135],[-78.597,69.371],[-78.229,69.304],[-78.853,68.916],[-79.211,68.845]]],[[[-100.217,68.807],[-100.616,68.783],[-100.612,68.99],[-100.178,68.904],[-100.217,68.807]]],[[[-101.846,68.586],[-102.266,68.664],[-102.013,68.825],[-101.722,68.724],[-101.846,68.586]]],[[[-74.881,68.349],[-75.4,68.525],[-75.287,68.688],[-74.984,68.648],[-74.798,68.458],[-74.881,68.349]]],[[[-104.541,68.406],[-104.965,68.492],[-104.907,68.582],[-104.472,68.504],[-104.541,68.406]]],[[[-75.676,68.322],[-75.154,68.234],[-75.127,67.537],[-75.4,67.367],[-75.78,67.284],[-76.694,67.236],[-77.005,67.267],[-77.157,67.408],[-77.306,67.706],[-77.229,67.85],[-76.74,68.231],[-76.364,68.319],[-75.676,68.322]]]]}},{"type":"Feature","properties":{"code":"ON","name":"Ontario"},"geometry":{"type":"MultiPolygon","coordinates":[[[[-95.155,49.37],[-95.159,50.665],[-95.157,51.528],[-95.154,52.822],[-94.387,53.285],[-93.62,53.748],[-92.295,54.69],[-91.378,55.317],[-90.68,55.767],[-88.948,56.851],[-88.447,56.609],[-88.075,56.467],[-87.878,56.342],[-87.561,56.056],[-86.919,55.915],[-85.677,55.601],[-85.407,55.431],[-85.061,55.286],[-84.518,55.259],[-83.911,55.315],[-83.214,55.215],[-82.986,55.231],[-82.868,55.161],[-82.577,55.149],[-82.308,54.998],[-82.219,54.813],[-82.418,54.356],[-82.394,54.18],[-82.24,54.045],[-82.141,53.818],[-82.191,53.611],[-82.159,53.264],[-82.292,53.066],[-82.26,52.961],[-82.02,52.812],[-81.599,52.433],[-81.661,52.294],[-81.285,52.089],[-80.968,51.972],[-80.658,51.758],[-80.368,51.33],[-80.104,51.283],[-79.836,51.173],[-79.52,50.919],[-79.518,50.017],[-79.515,48.565],[-79.513,47.551],[-79.547,47.407],[-79.365,47.022],[-79.166,46.827],[-79.015,46.607],[-78.781,46.393],[-78.46,46.307],[-77.683,46.187],[-77.371,46.063],[-77.233,45.904],[-77.031,45.807],[-76.824,45.88],[-76.667,45.643],[-76.413,45.496],[-76.123,45.505],[-75.904,45.42],[-75.626,45.451],[-74.864,45.642],[-74.577,45.632],[-74.397,45.568],[-74.478,45.318],[-74.34,45.214],[-74.709,45.004],[-74.857,45.004],[-75.179,44.899],[-75.401,44.772],[-75.876,44.417],[-76.151,44.304],[-76.465,44.058],[-76.82,43.629],[-78.72,43.625],[-79.172,43.467],[-79.059,43.278],[-79.066,43.106],[-78.915,42.909],[-79.037,42.802],[-79.762,42.539],[-80.248,42.366],[-80.521,42.324],[-81.278,42.209],[-82.439,41.675],[-82.69,41.675],[-83.03,41.833],[-83.122,41.95],[-83.15,42.142],[-83.073,42.3],[-82.868,42.385],[-82.545,42.625],[-82.408,43.073],[-82.138,43.571],[-82.281,44.192],[-82.551,45.347],[-83.593,45.817],[-83.469,45.995],[-83.616,46.117],[-83.978,46.085],[-84.088,46.227],[-84.192,46.55],[-84.562,46.457],[-84.779,46.637],[-84.876,46.9],[-86.04,47.38],[-87.208,47.849],[-88.378,48.303],[-88.612,48.264],[-89.273,48.02],[-89.498,47.998],[-89.994,48.015],[-90.092,48.118],[-90.744,48.105],[-90.84,48.201],[-91.043,48.194],[-91.221,48.105],[-91.518,48.058],[-92.172,48.338],[-92.415,48.277],[-92.501,48.435],[-92.996,48.612],[-93.258,48.629],[-93.708,48.525],[-94.055,48.659],[-94.621,48.743],[-94.803,49.003],[-94.854,49.305],[-95.155,49.37]]],[[[-79.52,50.966],[-79.714,51.118],[-79.689,51.347],[-79.521,51.545],[-79.52,50.966]]]]}},{"type":"Feature","properties":{"code":"PE","name":"Prince Edward Island"},"geometry":{"type":"Polygon","coordinates":[[[-63.811,46.469],[-63.681,46.562],[-63.369,46.508],[-63.129,46.422],[-62.164,46.487],[-62.024,46.422],[-62.552,46.166],[-62.531,45.977],[-62.878,46.001],[-62.895,46.124],[-63.117,46.253],[-63.277,46.153],[-63.641,46.23],[-63.861,46.408],[-64.111,46.425],[-64.107,46.562],[-64.388,46.641],[-64.355,46.769],[-63.994,47.062],[-63.981,46.913],[-64.088,46.775],[-63.903,46.639],[-63.811,46.469]]]}},{"type":"Feature","properties":{"code":"QC","name":"Quebec"},"geometry":{"type":"MultiPolygon","coordinates":[[[[-66.704,48.022],[-67.365,47.855],[-67.613,47.999],[-68.114,47.999],[-68.378,47.929],[-68.379,47.589],[-68.628,47.421],[-69.054,47.295],[-69.05,47.427],[-69.243,47.463],[-70.008,46.709],[-70.067,46.441],[-70.248,46.251],[-70.296,45.906],[-70.421,45.738],[-70.702,45.551],[-70.69,45.428],[-70.837,45.311],[-71.085,45.294],[-71.327,45.29],[-71.518,45.008],[-73.352,45.005],[-74.709,45.004],[-74.269,45.188],[-74.05,45.241],[-73.765,45.395],[-73.558,45.425],[-73.465,45.632],[-73.16,46.01],[-72.733,46.182],[-72.496,46.353],[-72.24,46.442],[-72.187,46.512],[-71.901,46.632],[-71.671,46.654],[-71.261,46.756],[-70.519,47.033],[-69.581,47.824],[-69.471,47.967],[-69.306,48.047],[-68.987,48.275],[-68.552,48.457],[-68.238,48.626],[-67.561,48.856],[-67.117,48.964],[-66.598,49.126],[-66.178,49.213],[-65.523,49.266],[-64.836,49.192],[-64.568,49.105],[-64.262,48.922],[-64.209,48.806],[-64.254,48.55],[-64.349,48.423],[-64.633,48.361],[-64.764,48.228],[-65.259,48.021],[-65.476,48.031],[-65.927,48.189],[-66.083,48.103],[-66.449,48.12],[-66.704,48.022]]],[[[-64.614,60.306],[-64.816,60.267],[-64.65,60.11],[-64.88,60.05],[-64.666,59.906],[-64.791,59.816],[-64.818,59.54],[-64.715,59.466],[-64.445,59.528],[-64.519,59.226],[-64.394,58.998],[-64.77,59.049],[-64.809,58.929],[-64.294,58.866],[-64.155,58.771],[-63.727,58.862],[-63.553,58.732],[-63.961,58.684],[-63.848,58.46],[-64.098,58.359],[-64.371,58.169],[-64.045,57.785],[-63.615,57.669],[-63.744,57.581],[-63.758,57.228],[-63.903,56.889],[-64.112,56.691],[-63.955,56.527],[-64.136,56.395],[-64.121,56.299],[-63.913,56.229],[-64.004,56.097],[-63.578,56.026],[-63.701,55.861],[-63.415,55.596],[-63.154,55.514],[-63.161,55.307],[-63.511,55.168],[-63.491,54.918],[-63.658,54.644],[-63.751,54.612],[-64.341,54.726],[-65.122,54.719],[-65.676,54.745],[-65.884,54.907],[-66.24,55.008],[-66.733,55.319],[-66.747,55.129],[-66.651,54.799],[-66.867,54.781],[-67.167,54.937],[-67.302,55.064],[-67.437,55.036],[-67.15,54.617],[-67.315,54.517],[-67.62,54.507],[-67.511,54.236],[-67.757,54.034],[-67.471,53.796],[-67.457,53.601],[-67.165,53.543],[-66.938,53.329],[-66.97,53.073],[-67.068,52.755],[-66.815,52.686],[-66.688,52.727],[-66.631,52.91],[-66.39,52.992],[-66.3,52.897],[-66.426,52.661],[-66.394,52.418],[-66.097,52.21],[-66.036,52.109],[-65.552,52.094],[-65.474,52.196],[-65.137,52.155],[-64.932,52.055],[-64.627,51.825],[-64.697,51.72],[-64.506,51.609],[-64.291,51.729],[-64.335,51.842],[-64.26,52.1],[-64.131,52.187],[-64.103,52.378],[-64.183,52.554],[-64.178,52.815],[-63.973,52.895],[-63.917,53.066],[-63.672,53.101],[-63.549,52.94],[-63.55,52.774],[-63.41,52.689],[-63.811,52.611],[-64.018,52.525],[-63.884,52.345],[-63.766,52.298],[-63.607,52.001],[-62.387,52.001],[-60.354,52.001],[-59.134,52.001],[-57.101,52.001],[-57.1,51.443],[-57.299,51.478],[-57.77,51.426],[-58.023,51.322],[-58.51,51.295],[-58.638,51.172],[-59.165,50.78],[-59.378,50.675],[-59.612,50.492],[-59.815,50.418],[-59.886,50.316],[-60.08,50.255],[-60.956,50.205],[-61.29,50.202],[-61.725,50.104],[-61.92,50.233],[-62.715,50.302],[-63.136,50.294],[-63.239,50.243],[-63.587,50.258],[-63.734,50.305],[-64.17,50.269],[-64.509,50.309],[-64.868,50.275],[-65.269,50.32],[-65.762,50.259],[-65.955,50.294],[-66.126,50.201],[-66.496,50.212],[-66.941,49.994],[-67.234,49.602],[-67.262,49.451],[-67.372,49.348],[-68.056,49.257],[-68.282,49.197],[-68.628,49.007],[-68.669,48.939],[-68.929,48.829],[-69.231,48.574],[-69.375,48.386],[-69.775,48.098],[-69.906,47.832],[-70.3,47.503],[-70.448,47.423],[-70.706,47.14],[-71.116,46.925],[-71.268,46.796],[-71.757,46.674],[-71.88,46.687],[-72.205,46.559],[-72.257,46.485],[-72.68,46.287],[-72.981,46.21],[-73.284,45.9],[-73.477,45.738],[-73.712,45.711],[-74.038,45.502],[-73.974,45.345],[-74.34,45.214],[-74.478,45.318],[-74.397,45.568],[-74.577,45.632],[-74.864,45.642],[-75.626,45.451],[-75.904,45.42],[-76.123,45.505],[-76.413,45.496],[-76.667,45.643],[-76.824,45.88],[-77.031,45.807],[-77.233,45.904],[-77.371,46.063],[-77.683,46.187],[-78.46,46.307],[-78.781,46.393],[-79.015,46.607],[-79.166,46.827],[-79.365,47.022],[-79.547,47.407],[-79.513,47.551],[-79.515,48.565],[-79.518,50.017],[-79.52,50.919],[-79.52,50.966],[-79.521,51.545],[-79.339,51.628],[-79.041,51.464],[-78.827,51.43],[-78.731,51.497],[-78.978,51.734],[-78.828,51.963],[-78.702,52.033],[-78.492,52.252],[-78.557,52.492],[-78.724,52.628],[-78.722,52.856],[-78.898,53.043],[-78.992,53.41],[-79.113,53.717],[-79.003,53.837],[-78.996,54.002],[-79.242,54.099],[-79.666,54.697],[-78.909,54.881],[-78.304,55.069],[-77.891,55.236],[-77.325,55.556],[-76.762,55.996],[-76.65,56.107],[-76.546,56.359],[-76.52,56.707],[-76.573,57.181],[-76.655,57.381],[-76.891,57.758],[-77.157,58.019],[-77.684,58.291],[-78.014,58.399],[-78.515,58.682],[-78.431,58.902],[-77.988,59.246],[-77.761,59.38],[-77.859,59.476],[-77.726,59.676],[-77.485,59.685],[-77.332,59.797],[-77.312,60.042],[-77.453,60.146],[-77.681,60.427],[-77.516,60.563],[-77.791,60.64],[-77.872,60.786],[-78.16,60.852],[-77.83,61.084],[-77.727,61.231],[-77.736,61.437],[-77.514,61.556],[-77.948,61.762],[-78.137,62.107],[-78.068,62.355],[-77.604,62.531],[-77.372,62.573],[-76.879,62.525],[-75.817,62.316],[-75.676,62.25],[-75.341,62.312],[-74.69,62.183],[-73.764,62.469],[-73.63,62.454],[-72.882,62.125],[-72.671,62.114],[-72.506,61.923],[-72.081,61.728],[-71.638,61.617],[-71.841,61.466],[-71.743,61.337],[-71.423,61.159],[-71.175,61.147],[-70.723,61.055],[-70.279,61.069],[-70.095,60.88],[-69.909,60.86],[-69.472,61.011],[-69.433,60.814],[-69.64,60.69],[-69.756,60.389],[-69.633,60.22],[-69.674,60.076],[-69.963,60.018],[-69.63,59.822],[-69.579,59.675],[-69.692,59.488],[-69.682,59.342],[-69.4,59.338],[-69.414,59.087],[-69.532,58.869],[-69.868,58.856],[-70.16,58.789],[-69.879,58.697],[-69.651,58.728],[-69.173,58.897],[-68.698,58.905],[-68.414,58.783],[-68.326,58.595],[-67.981,58.461],[-67.856,58.273],[-67.57,58.214],[-67.019,58.433],[-66.608,58.549],[-66.362,58.791],[-65.928,58.611],[-66.043,58.821],[-65.606,59.111],[-65.489,59.448],[-65.433,59.777],[-65.159,59.83],[-65.172,59.908],[-64.931,60.252],[-64.614,60.306]]],[[[-61.801,49.094],[-62.22,49.079],[-63.042,49.225],[-63.566,49.399],[-63.676,49.534],[-63.885,49.658],[-64.44,49.828],[-64.373,49.926],[-64.131,49.942],[-63.292,49.817],[-62.859,49.705],[-61.817,49.284],[-61.696,49.139],[-61.801,49.094]]],[[[-73.567,45.469],[-73.775,45.468],[-73.522,45.701],[-73.567,45.469]]]]}},{"type":"Feature","properties":{"code":"SK","name":"Saskatchewan"},"geometry":{"type":"Polygon","coordinates":[[[-109.999,48.993],[-109.999,50.026],[-110,51.402],[-110,52.778],[-110,53.81],[-110,54.498],[-110,55.529],[-110,56.561],[-110,57.249],[-110,58.281],[-110,59.313],[-110,60.001],[-109,60.001],[-107.501,60.001],[-106.001,60.001],[-104.501,60.001],[-103.001,60.001],[-102.002,60.001],[-102.002,59.217],[-102.001,58.171],[-102.001,57.386],[-102.001,56.602],[-102.001,55.818],[-101.882,54.538],[-101.802,53.685],[-101.723,52.832],[-101.603,51.553],[-101.484,50.273],[-101.367,48.993],[-102.22,48.993],[-104.034,48.993],[-105.631,48.993],[-107.337,48.993],[-109.042,48.993],[-109.999,48.993]]]}},{"type":"Feature","properties":{"code":"YT","name":"Yukon"},"geometry":{"type":"Polygon","coordinates":[[[-123.819,60.001],[-124.771,60.001],[-126.674,60.001],[-128.578,60.001],[-130.481,60.001],[-131.433,60.001],[-133.337,60.001],[-134.288,60.001],[-136.192,60.001],[-138.095,60.001],[-139.057,60.002],[-139.185,60.084],[-139.079,60.344],[-139.676,60.328],[-139.973,60.183],[-140.453,60.3],[-140.525,60.218],[-141.002,60.3],[-141.002,61.177],[-141.002,62.346],[-141.002,63.807],[-141.002,65.268],[-141.002,66.437],[-141.002,67.313],[-141.002,68.774],[-141.002,69.651],[-140.405,69.602],[-139.977,69.622],[-139.182,69.516],[-138.69,69.317],[-138.128,69.152],[-137.26,68.964],[-136.717,68.889],[-136.444,68.895],[-136.445,67.747],[-136.169,67.514],[-136.105,67.304],[-136.218,67.181],[-136.126,67.005],[-134.056,67.004],[-133.794,66.819],[-133.635,66.566],[-133.79,66.304],[-133.583,66.285],[-133.677,66.096],[-133.589,65.963],[-132.938,66.029],[-132.614,66.029],[-132.341,65.955],[-132.555,65.857],[-132.195,65.598],[-132.597,65.28],[-132.497,64.957],[-132.554,64.78],[-132.052,64.684],[-131.716,64.515],[-131.586,64.38],[-131.359,64.458],[-131.107,64.401],[-130.941,64.141],[-130.661,63.951],[-130.145,63.762],[-129.845,63.486],[-130.102,63.319],[-129.827,63.092],[-129.63,63.068],[-129.719,62.832],[-129.49,62.599],[-129.211,62.513],[-129.287,62.441],[-129.269,62.166],[-128.776,62.069],[-128.561,62.117],[-127.994,61.711],[-127.609,61.533],[-127.299,61.512],[-127.073,61.37],[-127.027,61.126],[-126.944,61.052],[-126.89,60.796],[-126.003,60.809],[-125.864,60.89],[-125.379,60.792],[-124.88,60.86],[-124.807,60.961],[-124.583,60.953],[-124.505,60.788],[-124.599,60.662],[-124.205,60.353],[-123.819,60.001]]]}}]}